STARLINK-31581          
1 59474U 24068V   26093.79030792  .00000114  00000+0  13659-4 0  9999
2 59474  43.0008 245.6448 0001099 261.0957  98.9770 15.27575323112440
STARLINK-31566          
1 59475U 24068W   26093.79446586  .00001619  00000+0  68332-4 0  9991
2 59475  43.0023 252.6056 0001417 276.7366  83.3324 15.27587515112362
STARLINK-31515          
1 59476U 24068X   26093.80217770  .00005705  00000+0  21661-3 0  9998
2 59476  42.9955 252.6631 0001340 270.2289  89.8409 15.27591429112366
STARLINK-31531          
1 59477U 24068Y   26094.28838354 -.00000902  00000+0 -23246-4 0  9997
2 59477  43.0025 194.7932 0001844 273.8876  86.1765 15.27595849113060
STARLINK-31753          
1 59484U 24071A   26093.66024197 -.00009187  00000+0 -32484-3 0  9999
2 59484  42.9981 198.8023 0001480 248.1621 111.9073 15.27567522112023
STARLINK-31733          
1 59486U 24071C   26093.69608537  .00002495  00000+0  10025-3 0  9990
2 59486  43.0040 198.2104 0001974 266.4056  93.6570 15.27557725112033
STARLINK-31657          
1 59487U 24071D   26094.30126926 -.00003728  00000+0 -12605-3 0  9995
2 59487  43.0026 195.0106 0001682 275.9092  84.1568 15.27566629112121
STARLINK-31754          
1 59488U 24071E   26094.29145853  .00003712  00000+0  14440-3 0  9994
2 59488  43.0020 202.7267 0001785 283.4062  76.6590 15.27570683112031
STARLINK-31638          
1 59489U 24071F   26094.29998236  .00000043  00000+0  11097-4 0  9996
2 59489  43.0037 194.9965 0001454 271.4205  88.6480 15.27567490112129
STARLINK-31670          
1 59490U 24071G   26093.59997899  .00000452  00000+0  25941-4 0  9991
2 59490  42.9972 210.4740 0000519 252.6502 107.4293 15.27581719111888
STARLINK-31712          
1 59491U 24071H   26093.66665260  .00001002  00000+0  45959-4 0  9997
2 59491  43.0019 210.0953 0002073 268.8095  91.2520 15.27572213111891
STARLINK-31684          
1 59492U 24071J   26094.29531692 -.00004354  00000+0 -14880-3 0  9992
2 59492  43.0056 202.7516 0001693 261.7183  98.3477 15.27571914112036
STARLINK-31678          
1 59493U 24071K   26094.30300672  .00016172  00000+0  59583-3 0  9995
2 59493  43.0007 202.8096 0001638 270.4457  89.6207 15.27583678110859
STARLINK-31744          
1 59494U 24071L   26094.29916432 -.00005250  00000+0 -18148-3 0  9990
2 59494  43.0011 202.7812 0001306 275.5566  84.5137 15.27563474112039
STARLINK-31719          
1 59495U 24071M   26094.26159257 -.00000805  00000+0 -19714-4 0  9994
2 59495  43.0105 195.5831 0003261 283.7699  76.2789 15.27542738112114
STARLINK-31728          
1 59496U 24071N   26093.71792186  .00030109  00000+0  10996-2 0  9997
2 59496  42.9983 198.3668 0001204 265.9519  94.1195 15.27567810112033
STARLINK-31720          
1 59497U 24071P   26094.27827874 -.00017554  00000+0 -62957-3 0  9999
2 59497  43.0055 195.7034 0002742 269.4206  90.6332 15.27592062112114
STARLINK-31731          
1 59498U 24071Q   26094.28329039  .00000047  00000+0  11264-4 0  9994
2 59498  43.0046 194.8747 0002251 274.8642  85.1953 15.27554616112127
STARLINK-31742          
1 59499U 24071R   26093.63840916 -.00001180  00000+0 -33385-4 0  9994
2 59499  43.0005 198.6306 0001673 272.7444  87.3216 15.27563251112020
STARLINK-31512          
1 59500U 24071S   26094.20624595 -.00000625  00000+0 -13199-4 0  9998
2 59500  43.0032 155.4910 0001042 272.7482  87.3251 15.27565057112561
STARLINK-31458          
1 59501U 24071T   26094.29741744 -.00001494  00000+0 -44794-4 0  9994
2 59501  43.0036 194.9782 0001645 278.5638  81.5027 15.27563589112124
STARLINK-31357          
1 59502U 24071U   26093.02693375  .00001009  00000+0  46171-4 0  9992
2 59502  43.0017 202.6497 0000925 244.9479 115.1277 15.27576933111929
STARLINK-31508          
1 59503U 24071V   26094.27314714 -.00002886  00000+0 -95450-4 0  9998
2 59503  43.0016 195.6578 0001426 216.3453 143.7302 15.27564479112112
STARLINK-31535          
1 59504U 24071W   26093.71838590 -.00008910  00000+0 -31483-3 0  9999
2 59504  43.0021 206.1581 0002145 278.9403  81.1206 15.27556598111940
STARLINK-31533          
1 59505U 24071X   26094.28085028  .00002867  00000+0  11370-3 0  9999
2 59505  43.0049 195.7184 0001523 266.7181  93.3496 15.27570899112116
STARLINK-31524          
1 59506U 24071Y   26094.25608512 -.00011859  00000+0 -42206-3 0  9991
2 59506  43.0037 188.4184 0001703 267.6865  92.3792 15.27582211112199
STARLINK-31635          
1 59511U 24073A   26094.27959115 -.00000201  00000+0  21982-5 0  9997
2 59511  43.0029 173.1302 0000868 242.2974 117.7790 15.27594011110098
STARLINK-31650          
1 59512U 24073B   26094.25018922 -.00002450  00000+0 -79551-4 0  9991
2 59512  43.0043 173.7627 0001194 284.3717  75.7002 15.27570696110087
STARLINK-31658          
1 59513U 24073C   26094.14740986  .00002296  00000+0  92969-4 0  9996
2 59513  43.0018 133.9692 0001191 276.8560  83.2156 15.27571334110522
STARLINK-31669          
1 59515U 24073E   26094.28986993 -.00002062  00000+0 -65419-4 0  9996
2 59515  43.0019 173.2052 0001534 271.5777  88.4899 15.27575097110098
STARLINK-31671          
1 59516U 24073F   26094.26046775 -.00000304  00000+0 -15251-5 0  9997
2 59516  43.0031 173.8406 0001822 280.9571  79.1075 15.27564313110089
STARLINK-31674          
1 59517U 24073G   26094.23605764 -.00005447  00000+0 -18854-3 0  9997
2 59517  43.0010 173.6572 0000689  54.6400 305.4516 15.27587073110089
STARLINK-31679          
1 59519U 24073J   26094.22852000 -.00003302  00000+0 -11053-3 0  9997
2 59519  43.0059 163.2117 0002299 298.4260  61.6360 15.27566129110206
STARLINK-31370          
1 59520U 24073K   26094.25790398 -.00004383  00000+0 -14984-3 0  9999
2 59520  43.0053 173.8247 0001306 288.4075  71.6634 15.27577499110087
STARLINK-31404          
1 59521U 24073L   26094.26817494  .00012833  00000+0  47522-3 0  9999
2 59521  43.0038 173.9022 0002874 279.0120  81.0406 15.27567790110086
STARLINK-31453          
1 59522U 24073M   26094.22942820  .00049589  00000+0  17987-2 0  9997
2 59522  43.0018 156.0057 0001029 252.6408 107.4331 15.27594214110285
STARLINK-31476          
1 59523U 24073N   26094.25404904 -.00001982  00000+0 -62552-4 0  9994
2 59523  43.0033 173.7917 0000485 289.9627  70.1172 15.27569356110081
STARLINK-31538          
1 59525U 24073Q   26094.22834533 -.00000089  00000+0  62930-5 0  9995
2 59525  43.0022 173.5977 0001727 266.5259  93.5395 15.27567463110080
STARLINK-31564          
1 59526U 24073R   26094.28602514  .00003665  00000+0  14269-3 0  9996
2 59526  43.0052 173.1780 0002103 289.2199  70.8425 15.27570179110097
STARLINK-31452          
1 59527U 24073S   26094.26432258 -.00001350  00000+0 -39568-4 0  9992
2 59527  42.9978 173.8684 0000310 251.9118 108.1700 15.27573160110081
STARLINK-31513          
1 59529U 24073U   26094.26223035  .00003192  00000+0  12552-3 0  9992
2 59529  42.9994 170.3574 0000755 273.6027  86.4738 15.27565895110124
STARLINK-31392          
1 59530U 24073V   26094.24630766  .00002137  00000+0  87153-4 0  9993
2 59530  43.0046 173.7286 0003165 280.1883  79.8612 15.27587739110087
STARLINK-31619          
1 59531U 24073W   26094.29758428  .00005125  00000+0  19571-3 0  9993
2 59531  43.0003 173.2562 0000800 234.9507 125.1270 15.27565563111218
STARLINK-31509          
1 59533U 24073Y   26094.27203310 -.00001698  00000+0 -52198-4 0  9994
2 59533  43.0019 173.9433 0001098 311.4636  48.6122 15.27572315110087
STARLINK-31734          
1 59534U 24074A   26094.27785962  .00001099  00000+0  49486-4 0  9993
2 59534  43.0023 188.1190 0001833 275.3703  84.6939 15.27562424110054
STARLINK-31738          
1 59535U 24074B   26094.29487130  .00001501  00000+0  64099-4 0  9997
2 59535  43.0027 195.0870 0001898 275.2533  84.8102 15.27558062109978
STARLINK-31721          
1 59536U 24074C   26094.29695803  .00000662  00000+0  33570-4 0  9993
2 59536  42.9996 198.6483 0000925 209.3803 150.6996 15.27570949109936
STARLINK-31737          
1 59537U 24074D   26093.72261632 -.00004880  00000+0 -16800-3 0  9994
2 59537  43.0013 202.0768 0001578 266.6310  93.4361 15.27561753109842
STARLINK-31725          
1 59538U 24074E   26094.11051846  .01077278  00000+0  52950-2 0  9998
2 59538  42.9874 173.4596 0019913  39.6904 320.5419 15.78752190110208
STARLINK-31539          
1 59539U 24074F   26093.66880575 -.00002536  00000+0 -82705-4 0  9996
2 59539  43.0034 202.5343 0001513 275.2234  84.8445 15.27560403109838
STARLINK-31397          
1 59540U 24074G   26094.27140043 -.00001556  00000+0 -47055-4 0  9995
2 59540  43.0001 199.3197 0000206 139.5837 220.5030 15.27574130109924
STARLINK-31481          
1 59541U 24074H   26094.28283350 -.00000787  00000+0 -19096-4 0  9995
2 59541  43.0012 198.5449 0000868 225.5368 134.5413 15.27567522109934
STARLINK-31540          
1 59542U 24074J   26094.30081945  .00006765  00000+0  25523-3 0  9996
2 59542  43.0025 198.6774 0001220 259.6753 100.3961 15.27567895109932
STARLINK-31574          
1 59543U 24074K   26094.26113728 -.00001236  00000+0 -35425-4 0  9990
2 59543  43.0000 199.2386 0000853 286.2834  73.7924 15.27566013109921
STARLINK-31556          
1 59544U 24074L   26094.26369914  .00000749  00000+0  36765-4 0  9995
2 59544  43.0028 199.2636 0001273 273.3321  86.7385 15.27567304109924
STARLINK-31582          
1 59545U 24074M   26094.27526812 -.00001590  00000+0 -48298-4 0  9990
2 59545  43.0032 199.3464 0001505 261.2012  98.8669 15.27559091109924
STARLINK-31519          
1 59546U 24074N   26094.28925818  .00001645  00000+0  69389-4 0  9994
2 59546  43.0079 198.5920 0006572 280.1984  79.8127 15.27550907109937
STARLINK-31736          
1 59547U 24074P   26094.24925825  .00000334  00000+0  21687-4 0  9992
2 59547  43.0015 192.2227 0001634 295.7870  64.2813 15.27558905110005
STARLINK-31675          
1 59548U 24074Q   26093.58542844 -.00061100  00000+0 -22380-2 0  9994
2 59548  42.9952 202.7629 0002071 276.7591  83.3024 15.27448431109828
